[Satellite]
VERSION=1.1
NAME=STARLINK-5025
NICKNAME=STARLINK-5025
TLE1=1 53920U 22119AL  22297.25001157 -.00110858  00000+0 -79709-3 0  9996
TLE2=2 53920  53.2149 108.0465 0001021  62.4329 135.7090 15.73165736  5047
STATUS=0
